ONEWEB-0032             
1 45141U 20008L   24079.38043076  .00000175  00000+0  46401-3 0  9998
2 45141  87.8981 199.1854 0001645 100.9102 259.2210 13.10377472200934
ONEWEB-0033             
1 45142U 20008M   24079.35439613 -.00000591  00000+0 -17290-2 0  9999
2 45142  87.8973 199.1986 0001470 111.2439 248.8845 13.10370786200845
ONEWEB-0035             
1 45143U 20008N   24079.38690909  .00000449  00000+0  12511-2 0  9991
2 45143  87.8985 199.1692 0001548 106.8966 253.2331 13.10377241200577
ONEWEB-0036             
1 45144U 20008P   24079.83530351  .00000009  00000+0 -95848-5 0  9996
2 45144  87.8979 199.0409 0001815  97.7881 262.3453 13.10377891201924
ONEWEB-0038             
1 45145U 20008Q   24079.80503759  .00000401  00000+0  10959-2 0  9998
2 45145  87.9040 183.9840 0001731  79.2055 280.9268 13.11417957203720
ONEWEB-0039             
1 45146U 20008R   24079.89216426 -.00000544  00000+0 -15941-2 0  9996
2 45146  87.8978 199.0459 0002061  93.5030 266.6333 13.10374976201648
ONEWEB-0040             
1 45147U 20008S   24079.35114931 -.00000479  00000+0 -14090-2 0  9997
2 45147  87.8982 199.1482 0001748 100.5742 259.5582 13.10369989200498
ONEWEB-0041             
1 45148U 20008T   24079.82443627  .00000105  00000+0  14563-3 0  9997
2 45148  87.9482 174.2571 0019167  64.8756 295.4379 13.48448821208438
